FLOCK 4G-6              
1 62660U 25009BD  26068.71061311  .00012261  00000+0  45910-3 0  9991
2 62660  97.3980 150.7943 0002380 348.2637  11.8546 15.27432125121307
STARLINK-33712          
1 63797U 25091Y   26068.38078278  .00034560  00000+0  12585-2 0  9994
2 63797  43.0012  57.9029 0001402 242.4408 117.6301 15.27606334 48814
